{
  "type": "FeatureCollection",
  "features": [
    {
      "type": "Feature",
      "properties": {
        "norad_id": 66486,
        "name": "STARLINK-34844",
        "group": "last-30-days",
        "lat": 35.095829337051235,
        "lon": -50.26268192236456,
        "alt_km": 352.4118887530758,
        "timestamp": "2025-12-03T15:48:01.919459+00:00",
        "meta_object_name": "STARLINK-34844",
        "meta_object_id": "2025-263B",
        "meta_epoch": "2025-12-03T08:00:01.999872",
        "meta_mean_motion": 15.72095403,
        "meta_eccentricity": 0.00016535,
        "meta_inclination": 42.9993,
        "meta_ra_of_asc_node": 180.6477,
        "meta_arg_of_pericenter": 268.5947,
        "meta_mean_anomaly": 173.1246,
        "meta_ephemeris_type": 0,
        "meta_classification_type": "U",
        "meta_norad_cat_id": 66486,
        "meta_element_set_no": 999,
        "meta_rev_at_epoch": 407,
        "meta_bstar": -0.016640886,
        "meta_mean_motion_dot": -0.0198874,
        "meta_mean_motion_ddot": 0,
        "tle_line1": "1 66486U 25263B   25337.33335648 -.01988740  00000+0 -16641-1 0  9990",
        "tle_line2": "2 66486  42.9993 180.6477 0001653 268.5947 173.1246 15.72095403  4078"
      },
      "geometry": {
        "type": "Point",
        "coordinates": [
          -50.26268192236456,
          35.095829337051235
        ]
      }
    },
    {
      "type": "Feature",
      "properties": {
        "norad_id": 66487,
        "name": "STARLINK-34733",
        "group": "last-30-days",
        "lat": 34.21765281360873,
        "lon": -48.188805640910104,
        "alt_km": 352.6240010376987,
        "timestamp": "2025-12-03T15:48:01.919469+00:00",
        "meta_object_name": "STARLINK-34733",
        "meta_object_id": "2025-263C",
        "meta_epoch": "2025-12-03T08:00:01.999872",
        "meta_mean_motion": 15.72094082,
        "meta_eccentricity": 0.00016626,
        "meta_inclination": 42.9994,
        "meta_ra_of_asc_node": 180.6432,
        "meta_arg_of_pericenter": 275.4139,
        "meta_mean_anomaly": 168.2238,
        "meta_ephemeris_type": 0,
        "meta_classification_type": "U",
        "meta_norad_cat_id": 66487,
        "meta_element_set_no": 999,
        "meta_rev_at_epoch": 412,
        "meta_bstar": -0.016625488,
        "meta_mean_motion_dot": -0.01987024,
        "meta_mean_motion_ddot": 0,
        "tle_line1": "1 66487U 25263C   25337.33335648 -.01987024  00000+0 -16625-1 0  9997",
        "tle_line2": "2 66487  42.9994 180.6432 0001662 275.4139 168.2238 15.72094082  4125"
      },
      "geometry": {
        "type": "Point",
        "coordinates": [
          -48.188805640910104,
          34.21765281360873
        ]
      }
    },
    {
      "type": "Feature",
      "properties": {
        "norad_id": 66488,
        "name": "STARLINK-35515",
        "group": "last-30-days",
        "lat": 33.306454776468364,
        "lon": -46.16207242355595,
        "alt_km": 352.6612586389947,
        "timestamp": "2025-12-03T15:48:01.919479+00:00",
        "meta_object_name": "STARLINK-35515",
        "meta_object_id": "2025-263D",
        "meta_epoch": "2025-12-03T08:00:01.999872",
        "meta_mean_motion": 15.7209705,
        "meta_eccentricity": 0.00015181,
        "meta_inclination": 42.9995,
        "meta_ra_of_asc_node": 180.6381,
        "meta_arg_of_pericenter": 275.9319,
        "meta_mean_anomaly": 169.6191,
        "meta_ephemeris_type": 0,
        "meta_classification_type": "U",
        "meta_norad_cat_id": 66488,
        "meta_element_set_no": 999,
        "meta_rev_at_epoch": 412,
        "meta_bstar": -0.01662651,
        "meta_mean_motion_dot": -0.01987235,
        "meta_mean_motion_ddot": 0,
        "tle_line1": "1 66488U 25263D   25337.33335648 -.01987235  00000+0 -16627-1 0  9994",
        "tle_line2": "2 66488  42.9995 180.6381 0001518 275.9319 169.6191 15.72097050  4126"
      },
      "geometry": {
        "type": "Point",
        "coordinates": [
          -46.16207242355595,
          33.306454776468364
        ]
      }
    },
    {
      "type": "Feature",
      "properties": {
        "norad_id": 66489,
        "name": "STARLINK-35696",
        "group": "last-30-days",
        "lat": 32.36494598126764,
        "lon": -44.182220974795605,
        "alt_km": 352.71217942524527,
        "timestamp": "2025-12-03T15:48:01.919490+00:00",
        "meta_object_name": "STARLINK-35696",
        "meta_object_id": "2025-263E",
        "meta_epoch": "2025-12-03T08:00:01.999872",
        "meta_mean_motion": 15.7210015,
        "meta_eccentricity": 0.00015882,
        "meta_inclination": 42.9995,
        "meta_ra_of_asc_node": 180.6333,
        "meta_arg_of_pericenter": 267.0496,
        "meta_mean_anomaly": 180.4173,
        "meta_ephemeris_type": 0,
        "meta_classification_type": "U",
        "meta_norad_cat_id": 66489,
        "meta_element_set_no": 999,
        "meta_rev_at_epoch": 412,
        "meta_bstar": -0.016680304,
        "meta_mean_motion_dot": -0.01993198,
        "meta_mean_motion_ddot": 0,
        "tle_line1": "1 66489U 25263E   25337.33335648 -.01993198  00000+0 -16680-1 0  9999",
        "tle_line2": "2 66489  42.9995 180.6333 0001588 267.0496 180.4173 15.72100150  4126"
      },
      "geometry": {
        "type": "Point",
        "coordinates": [
          -44.182220974795605,
          32.36494598126764
        ]
      }
    },
    {
      "type": "Feature",
      "properties": {
        "norad_id": 66490,
        "name": "STARLINK-35693",
        "group": "last-30-days",
        "lat": 31.389831793734704,
        "lon": -42.23804474644276,
        "alt_km": 352.9531142546384,
        "timestamp": "2025-12-03T15:48:01.919499+00:00",
        "meta_object_name": "STARLINK-35693",
        "meta_object_id": "2025-263F",
        "meta_epoch": "2025-12-03T08:00:01.999872",
        "meta_mean_motion": 15.72095809,
        "meta_eccentricity": 0.00016133,
        "meta_inclination": 42.9995,
        "meta_ra_of_asc_node": 180.6282,
        "meta_arg_of_pericenter": 273.2621,
        "meta_mean_anomaly": 176.1248,
        "meta_ephemeris_type": 0,
        "meta_classification_type": "U",
        "meta_norad_cat_id": 66490,
        "meta_element_set_no": 999,
        "meta_rev_at_epoch": 412,
        "meta_bstar": -0.016629869,
        "meta_mean_motion_dot": -0.01987575,
        "meta_mean_motion_ddot": 0,
        "tle_line1": "1 66490U 25263F   25337.33335648 -.01987575  00000+0 -16630-1 0  9998",
        "tle_line2": "2 66490  42.9995 180.6282 0001613 273.2621 176.1248 15.72095809  4128"
      },
      "geometry": {
        "type": "Point",
        "coordinates": [
          -42.23804474644276,
          31.389831793734704
        ]
      }
    },
    {
      "type": "Feature",
      "properties": {
        "norad_id": 66491,
        "name": "STARLINK-35663",
        "group": "last-30-days",
        "lat": 29.357428053443257,
        "lon": -38.47477049876729,
        "alt_km": 353.1755065926509,
        "timestamp": "2025-12-03T15:48:01.919508+00:00",
        "meta_object_name": "STARLINK-35663",
        "meta_object_id": "2025-263G",
        "meta_epoch": "2025-12-03T08:00:01.999872",
        "meta_mean_motion": 15.72097691,
        "meta_eccentricity": 0.00015758,
        "meta_inclination": 42.9992,
        "meta_ra_of_asc_node": 180.6189,
        "meta_arg_of_pericenter": 270.9314,
        "meta_mean_anomaly": 182.289,
        "meta_ephemeris_type": 0,
        "meta_classification_type": "U",
        "meta_norad_cat_id": 66491,
        "meta_element_set_no": 999,
        "meta_rev_at_epoch": 412,
        "meta_bstar": -0.016659875,
        "meta_mean_motion_dot": -0.01990849,
        "meta_mean_motion_ddot": 0,
        "tle_line1": "1 66491U 25263G   25337.33335648 -.01990849  00000+0 -16660-1 0  9990",
        "tle_line2": "2 66491  42.9992 180.6189 0001575 270.9314 182.2890 15.72097691  4124"
      },
      "geometry": {
        "type": "Point",
        "coordinates": [
          -38.47477049876729,
          29.357428053443257
        ]
      }
    },
    {
      "type": "Feature",
      "properties": {
        "norad_id": 66492,
        "name": "STARLINK-35673",
        "group": "last-30-days",
        "lat": 28.302881024649356,
        "lon": -36.651764663890546,
        "alt_km": 353.38739553407777,
        "timestamp": "2025-12-03T15:48:01.919517+00:00",
        "meta_object_name": "STARLINK-35673",
        "meta_object_id": "2025-263H",
        "meta_epoch": "2025-12-03T08:00:01.999872",
        "meta_mean_motion": 15.72099574,
        "meta_eccentricity": 0.00016587,
        "meta_inclination": 42.9993,
        "meta_ra_of_asc_node": 180.6138,
        "meta_arg_of_pericenter": 272.6344,
        "meta_mean_anomaly": 182.5003,
        "meta_ephemeris_type": 0,
        "meta_classification_type": "U",
        "meta_norad_cat_id": 66492,
        "meta_element_set_no": 999,
        "meta_rev_at_epoch": 412,
        "meta_bstar": -0.016666679,
        "meta_mean_motion_dot": -0.01991778,
        "meta_mean_motion_ddot": 0,
        "tle_line1": "1 66492U 25263H   25337.33335648 -.01991778  00000+0 -16667-1 0  9990",
        "tle_line2": "2 66492  42.9993 180.6138 0001658 272.6344 182.5003 15.72099574  4125"
      },
      "geometry": {
        "type": "Point",
        "coordinates": [
          -36.651764663890546,
          28.302881024649356
        ]
      }
    }
  ]
}